{
  "59601": {
    "noradId": "59601",
    "tle": [
      "1 59601C 24080A   26037.13937500  .00010912  00000+0  39560-3 0   372",
      "2 59601  43.0013 216.3722 0001283 265.2784 113.1060 15.27538467    16"
    ]
  },
  "59602": {
    "noradId": "59602",
    "tle": [
      "1 59602C 24080B   26037.14076389  .00007559  00000+0  27381-3 0   374",
      "2 59602  43.0023 212.9334 0001777 267.4776 108.7346 15.27565358    18"
    ]
  },
  "59603": {
    "noradId": "59603",
    "tle": [
      "1 59603C 24080C   26037.14354167  .00007113  00000+0  25768-3 0   371",
      "2 59603  42.9998 219.7834 0001451 263.2828 147.7119 15.27563882    10"
    ]
  },
  "59604": {
    "noradId": "59604",
    "tle": [
      "1 59604C 24080D   26037.14284722  .00007042  00000+0  25518-3 0   375",
      "2 59604  42.9999 212.5081 0001551 258.9955 298.5095 15.27556025    19"
    ]
  },
  "59605": {
    "noradId": "59605",
    "tle": [
      "1 59605C 24080E   26037.14145833  .00010077  00000+0  36520-3 0   372",
      "2 59605  42.9996 216.2579 0001460 274.6507 157.5984 15.27549236    14"
    ]
  },
  "59606": {
    "noradId": "59606",
    "tle": [
      "1 59606C 24080F   26037.14284722  .00008683  00000+0  31461-3 0   373",
      "2 59606  43.0008 219.9209 0001561 259.2928  91.2973 15.27557309    11"
    ]
  },
  "59607": {
    "noradId": "59607",
    "tle": [
      "1 59607C 24080G   26037.14145833  .00009623  00000+0  34882-3 0   378",
      "2 59607  43.0014 219.9824 0001488 275.8671  45.8715 15.27542828    18"
    ]
  },
  "59608": {
    "noradId": "59608",
    "tle": [
      "1 59608C 24080H   26037.14562500  .00010023  00000+0  36325-3 0   373",
      "2 59608  43.0015 212.1055 0001548 276.4733  99.0223 15.27547969    10"
    ]
  },
  "59609": {
    "noradId": "59609",
    "tle": [
      "1 59609C 24080J   26037.14076389  .00006547  00000+0  23721-3 0   371",
      "2 59609  43.0009 212.1781 0001607 262.3782  65.1455 15.27561614    18"
    ]
  },
  "59610": {
    "noradId": "59610",
    "tle": [
      "1 59610C 24080K   26037.14562500  .00001636  00000+0  59207-4 0   371",
      "2 59610  43.0024 212.8353 0001542 267.9926 163.2071 15.27594344    18"
    ]
  },
  "59611": {
    "noradId": "59611",
    "tle": [
      "1 59611C 24080L   26037.14076389  .00038413  00000+0  13932-2 0   373",
      "2 59611  42.9997 212.6550 0001492 268.7967 220.6285 15.27495147    17"
    ]
  },
  "59612": {
    "noradId": "59612",
    "tle": [
      "1 59612C 24080M   26037.14076389  .00008136  00000+0  29476-3 0   374",
      "2 59612  43.0000 212.4023 0001756 265.6876 329.8550 15.27559892    11"
    ]
  },
  "59613": {
    "noradId": "59613",
    "tle": [
      "1 59613C 24080N   26037.14423611  .00009097  00000+0  32966-3 0   374",
      "2 59613  43.0018 219.9905 0001348 271.6712  44.1304 15.27552068    17"
    ]
  },
  "59614": {
    "noradId": "59614",
    "tle": [
      "1 59614C 24080P   26037.14076389  .00008427  00000+0  30534-3 0   376",
      "2 59614  42.9997 216.2094 0001393 258.4758 191.1748 15.27558240    17"
    ]
  },
  "59615": {
    "noradId": "59615",
    "tle": [
      "1 59615C 24080Q   26037.14562500  .00189290  00000+0  43797-2 0   374",
      "2 59615  42.9976 214.0139 0014060 297.4979 342.5273 15.41327007    10"
    ]
  },
  "59616": {
    "noradId": "59616",
    "tle": [
      "1 59616C 24080R   26037.14423611  .00009038  00000+0  32739-3 0   370",
      "2 59616  42.9997 216.1564 0001337 266.2087 216.5756 15.27564700    19"
    ]
  },
  "59617": {
    "noradId": "59617",
    "tle": [
      "1 59617C 24080S   26037.14493056  .00009174  00000+0  33241-3 0   371",
      "2 59617  43.0019 216.3903 0001456 257.9372 129.7637 15.27555034    15"
    ]
  },
  "59618": {
    "noradId": "59618",
    "tle": [
      "1 59618C 24080T   26037.14423611  .00060410  00000+0  21906-2 0   376",
      "2 59618  42.9995 219.8272 0001307 267.4092 126.1862 15.27480783    13"
    ]
  },
  "59619": {
    "noradId": "59619",
    "tle": [
      "1 59619C 24080U   26037.14423611  .00006628  00000+0  23999-3 0   373",
      "2 59619  42.9999 219.8782 0001509 261.8432 110.4637 15.27583308    17"
    ]
  },
  "59621": {
    "noradId": "59621",
    "tle": [
      "1 59621C 24080W   26037.14145833  .00008810  00000+0  31915-3 0   375",
      "2 59621  43.0004 212.2445 0001746 265.1038  37.9341 15.27562359    12"
    ]
  },
  "59622": {
    "noradId": "59622",
    "tle": [
      "1 59622C 24080X   26037.14284722  .00008647  00000+0  31332-3 0   378",
      "2 59622  43.0006 212.7262 0001488 259.0287 206.5091 15.27555813    11"
    ]
  },
  "59623": {
    "noradId": "59623",
    "tle": [
      "1 59623C 24080Y   26037.14354167  .00010272  00000+0  37235-3 0   375",
      "2 59623  43.0023 216.4486 0001472 278.8828  79.9443 15.27540546    13"
    ]
  },
  "59631": {
    "noradId": "59631",
    "tle": [
      "1 59631C 24082A   26037.14631944  .00034690  00000+0  12576-2 0   377",
      "2 59631  43.0024 317.6214 0001406 273.4788  15.8003 15.27513243    14"
    ]
  },
  "59632": {
    "noradId": "59632",
    "tle": [
      "1 59632C 24082B   26037.14215278  .00034737  00000+0  12593-2 0   377",
      "2 59632  43.0022 303.8652 0001059 272.8773 194.5491 15.27513525    16"
    ]
  },
  "59633": {
    "noradId": "59633",
    "tle": [
      "1 59633C 24082C   26037.14215278 -.00007032  00000+0 -25500-3 0   371",
      "2 59633  43.0005 310.8585 0001436 253.4450 311.0038 15.27545406    13"
    ]
  },
  "59634": {
    "noradId": "59634",
    "tle": [
      "1 59634C 24082D   26037.13937500  .00046587  00000+0  16885-2 0   371",
      "2 59634  43.0022 317.9148 0001394 282.0206 222.9021 15.27510909    18"
    ]
  },
  "59635": {
    "noradId": "59635",
    "tle": [
      "1 59635C 24082E   26037.13798611  .00038325  00000+0  13891-2 0   375",
      "2 59635  43.0016 318.3406 0001166 270.1952  50.2169 15.27516958    12"
    ]
  },
  "59636": {
    "noradId": "59636",
    "tle": [
      "1 59636C 24082F   26037.14006944  .00032618  00000+0  11825-2 0   372",
      "2 59636  43.0018 318.2271 0001801 267.7096 106.6219 15.27514230    14"
    ]
  },
  "59637": {
    "noradId": "59637",
    "tle": [
      "1 59637C 24082G   26037.13937500  .00028871  00000+0  10470-2 0   374",
      "2 59637  43.0031 317.7591 0001230 276.2052 292.4355 15.27508548    12"
    ]
  },
  "59638": {
    "noradId": "59638",
    "tle": [
      "1 59638C 24082H   26037.13937500  .00022839  00000+0  82761-3 0   376",
      "2 59638  43.0017 318.3825 0001590 261.1263  45.6675 15.27540102    15"
    ]
  },
  "59639": {
    "noradId": "59639",
    "tle": [
      "1 59639C 24082J   26037.14354167  .00004669  00000+0  16936-3 0   372",
      "2 59639  43.0016 318.2573 0001741 254.5139 117.8044 15.27522726    14"
    ]
  },
  "59640": {
    "noradId": "59640",
    "tle": [
      "1 59640C 24082K   26037.13868056 -.00018551  00000+0 -67283-3 0   378",
      "2 59640  43.0008 318.0526 0001692 278.7629 165.8187 15.27551417    10"
    ]
  },
  "59641": {
    "noradId": "59641",
    "tle": [
      "1 59641C 24082L   26037.14284722  .00043908  00000+0  15916-2 0   379",
      "2 59641  43.0028 317.6886 0001313 282.7944 326.1442 15.27509763    15"
    ]
  },
  "59642": {
    "noradId": "59642",
    "tle": [
      "1 59642C 24082M   26037.13937500  .00017433  00000+0  63198-3 0   378",
      "2 59642  43.0011 277.6204 0001651 263.2954 143.9071 15.27532188    17"
    ]
  },
  "59643": {
    "noradId": "59643",
    "tle": [
      "1 59643C 24082N   26037.14076389  .00015213  00000+0  55172-3 0   376",
      "2 59643  43.0015 318.1708 0001246 260.3013 132.0593 15.27521706    18"
    ]
  },
  "59644": {
    "noradId": "59644",
    "tle": [
      "1 59644C 24082P   26037.13937500  .00040251  00000+0  14594-2 0   379",
      "2 59644  43.0026 317.8596 0001549 251.6125 274.5583 15.27503839    13"
    ]
  },
  "59645": {
    "noradId": "59645",
    "tle": [
      "1 59645C 24082Q   26037.13937500  .00015355  00000+0  55579-3 0   376",
      "2 59645  43.0023 259.4201 0001529 260.6642 148.0225 15.27584823    17"
    ]
  },
  "59646": {
    "noradId": "59646",
    "tle": [
      "1 59646C 24082R   26037.13937500  .00014191  00000+0  51445-3 0   372",
      "2 59646  43.0015 317.9450 0001368 263.0014 227.7846 15.27535660    15"
    ]
  },
  "59647": {
    "noradId": "59647",
    "tle": [
      "1 59647C 24082S   26037.14145833  .00043678  00000+0  15834-2 0   377",
      "2 59647  43.0017 318.4194 0001666 277.3021  19.8012 15.27505879    10"
    ]
  },
  "59650": {
    "noradId": "59650",
    "tle": [
      "1 59650C 24082V   26037.13868056  .00026071  00000+0  94485-3 0   377",
      "2 59650  43.0010 317.9997 0001275 265.7915 199.8844 15.27532884    19"
    ]
  },
  "59651": {
    "noradId": "59651",
    "tle": [
      "1 59651C 24082W   26037.14354167  .00040109  00000+0  14543-2 0   376",
      "2 59651  43.0008 318.0732 0001244 276.6066 173.4556 15.27504684    15"
    ]
  },
  "59652": {
    "noradId": "59652",
    "tle": [
      "1 59652C 24082X   26037.13868056 -.00008645  00000+0 -31326-3 0   373",
      "2 59652  43.0006 307.3220 0001702 269.1224 308.9422 15.27572881    10"
    ]
  },
  "59653": {
    "noradId": "59653",
    "tle": [
      "1 59653C 24082Y   26037.14076389  .00034653  00000+0  12563-2 0   372",
      "2 59653  43.0035 317.7977 0001381 253.7109 301.3205 15.27512536    18"
    ]
  },
  "59654": {
    "noradId": "59654",
    "tle": [
      "1 59654C 24084A   26037.14493056  .00006886  00000+0  24947-3 0   376",
      "2 59654  43.0014 219.7836 0002186 263.7956 352.4990 15.27560191    14"
    ]
  },
  "59655": {
    "noradId": "59655",
    "tle": [
      "1 59655C 24084B   26037.13937500  .00008895  00000+0  32237-3 0   376",
      "2 59655  42.9996 216.4596 0001519 277.3383 263.2546 15.27550373    10"
    ]
  }
}